{
  "type": "FeatureCollection",
  "features": [
    {
      "type": "Feature",
      "properties": {
        "layer": "risk_zone",
        "risk_level": "CURRENT",
        "scenario": "HINNAMNOR_REPLAY_SYNTHETIC",
        "disclaimer": "Demo impact area; not a surveyed 2022 flood boundary."
      },
      "geometry": {
        "type": "Polygon",
        "coordinates": [
          [
            [
              129.40478825582298,
              35.98516869070466
            ],
            [
              129.40478622828803,
              35.98513776761228
            ],
            [
              129.40478048116825,
              35.985107154941055
            ],
            [
              129.40477106981564,
              35.98507714750721
            ],
            [
              129.40475808487056,
              35.98504803429785
            ],
            [
              129.4047416513884,
              35.985020095687965
            ],
            [
              129.4047219276353,
              35.984993600740275
            ],
            [
              129.40469910356384,
              35.98496880461402
            ],
            [
              129.40467339898342,
              35.984945946107786
            ],
            [
              129.4046450614436,
              35.98492524535973
            ],
            [
              129.40461436384987,
              35.984906901727655
            ],
            [
              129.40458160183553,
              35.98489109186908
            ],
            [
              129.40454709091455,
              35.98487796804006
            ],
            [
              129.4045111634431,
              35.984867656628936
            ],
            [
              129.40447416541903,
              35.98486025693913
            ],
            [
              129.40443645314957,
              35.984855840232946
            ],
            [
              129.4043983898204,
              35.98485444904518
            ],
            [
              129.40436034199772,
              35.984856096773626
            ],
            [
              129.40432267609862,
              35.98486076754996
            ],
            [
              129.4042857548621,
              35.9848684163926
            ],
            [
              129.40424993385605,
              35.98487896963988
            ],
            [
              129.40421555805298,
              35.984892325659395
            ],
            [
              129.40418295850802,
              35.98490835582676
            ],
            [
              129.40415244917057,
              35.98492690576427
            ],
            [
              129.404124323861,
              35.98494779682756
            ],
            [
              129.40409885344113,
              35.984970827826025
            ],
            [
              129.40407628320546,
              35.984995776960275
            ],
            [
              129.40405683051907,
              35.98502240395821
            ],
            [
              129.40404068272403,
              35.98505045238878
            ],
            [
              129.40402799533533,
              35.9850796521316
            ],
            [
              129.40401889054286,
              35.98510972197825
            ],
            [
              129.4040134560346,
              35.98514037234047
            ],
            [
              129.404011744152,
              35.98517130803896
            ],
            [
              129.40401377138585,
              35.9852022311462
            ],
            [
              129.4040195182171,
              35.98523284385551
            ],
            [
              129.40402892930473,
              35.98526285134926
            ],
            [
              129.4040419140187,
              35.98529196463799
            ],
            [
              129.4040583473124,
              35.985319903343665
            ],
            [
              129.40407807092697,
              35.98534639839991
            ],
            [
              129.4041008949152,
              35.9853711946433
            ],
            [
              129.4041265994708,
              35.98539405327074
            ],
            [
              129.40415493704518,
              35.98541475413942
            ],
            [
              129.40418563473156,
              35.98543309788693
            ],
            [
              129.4042183968931,
              35.985448907851264
            ],
            [
              129.40425290801016,
              35.98546203177235
            ],
            [
              129.40428883571894,
              35.98547234325829
            ],
            [
              129.40432583401258,
              35.98547974300275
            ],
            [
              129.40436354657342,
              35.98548415974139
            ],
            [
              129.40440161020467,
              35.985485550938115
            ],
            [
              129.4044396583284,
              35.98548390319482
            ],
            [
              129.40447732451608,
              35.98547923238039
            ],
            [
              129.40451424601753,
              35.98547158347787
            ],
            [
              129.40455006725472,
              35.98546103015122
            ],
            [
              129.40458444324622,
              35.985447674035896
            ],
            [
              129.40461704292971,
              35.98543164375999
            ],
            [
              129.40464755235044,
              35.98541309370535
            ],
            [
              129.40467567768482,
              35.985392202520835
            ],
            [
              129.40470114807013,
              35.98536917140175
            ],
            [
              129.40472371821312,
              35.98534422215206
            ],
            [
              129.40474317075234,
              35.98531759504836
            ],
            [
              129.40475931835135,
              35.98528954652575
            ],
            [
              129.40477200550268,
              35.98526034670813
            ],
            [
              129.4047811100256,
              35.985230276806796
            ],
            [
              129.40478654424246,
              35.98519962641214
            ],
            [
              129.40478825582298,
              35.98516869070466
            ]
          ]
        ]
      }
    }
  ]
}