{
  "type": "FeatureCollection",
  "metadata": {
    "generated_at": "2026-08-22T17:25:33.381683+00:00",
    "prototype": true,
    "label": "lower-risk route candidate",
    "disclaimer": "Static surface-flood susceptibility and OSM roads only. Not a safety guarantee; follow official alerts and road controls.",
    "osm_attribution": "© OpenStreetMap contributors",
    "forecast_horizon_minutes": 60,
    "origin": {
      "latitude": 35.9835575,
      "longitude": 129.406536
    },
    "parameters": {
      "radius_m": 3500,
      "risk_buffer_m": 120.0,
      "high_penalty": 5.0,
      "very_high_penalty": 12.0,
      "candidate_limit": 25
    },
    "blocked_edge_count": 0,
    "limitations": [
      "risk influence radius is a demo parameter, not an official flood boundary",
      "parking destination safety_verified is false",
      "no live capacity or road-closure feed is included unless explicitly supplied"
    ],
    "inputs": {
      "risk_csv_sha256": "0b812909e28b7ca7afea83e75be4884430f3af1b833b5b9e82e8e36ce00e4310",
      "parking_csv_sha256": "ecce3bfb87f51af9784ba09af5496e844ca2983d6b0e971b4a0f88db89ea11c4",
      "current_flood_geojson_sha256": null
    }
  },
  "features": [
    {
      "type": "Feature",
      "geometry": {
        "type": "Point",
        "coordinates": [
          129.406536,
          35.9835575
        ]
      },
      "properties": {
        "layer": "origin",
        "label": "Route origin"
      }
    },
    {
      "type": "Feature",
      "geometry": {
        "type": "Point",
        "coordinates": [
          129.4007387,
          35.98538485
        ]
      },
      "properties": {
        "layer": "destination",
        "id": "parking:d14f3c7979a80a1bda68",
        "name": "제철복지회관 임시주차장",
        "address": "경상북도 포항시 남구 인덕동 47-4",
        "parking_type": "노외",
        "safety_verified": false
      }
    },
    {
      "type": "Feature",
      "geometry": {
        "type": "LineString",
        "coordinates": [
          [
            129.4066967,
            35.9841388
          ],
          [
            129.406357,
            35.9847162
          ],
          [
            129.4056929,
            35.9847092
          ],
          [
            129.4055668,
            35.9847281
          ],
          [
            129.4055388,
            35.9847961
          ],
          [
            129.4055301,
            35.9852225
          ],
          [
            129.4043886,
            35.9851689
          ],
          [
            129.4040865,
            35.9851795
          ],
          [
            129.4030942,
            35.9851552
          ],
          [
            129.4026923,
            35.9851516
          ],
          [
            129.4012283,
            35.9851126
          ],
          [
            129.400936,
            35.9851134
          ],
          [
            129.401038,
            35.9855804
          ]
        ]
      },
      "properties": {
        "layer": "baseline_route",
        "distance_m": 664.2,
        "travel_time_s": 159.4,
        "high_exposure_m": 0.0,
        "very_high_exposure_m": 0.0,
        "risk_cost": 664.2
      }
    },
    {
      "type": "Feature",
      "geometry": {
        "type": "LineString",
        "coordinates": [
          [
            129.4066967,
            35.9841388
          ],
          [
            129.406357,
            35.9847162
          ],
          [
            129.4056929,
            35.9847092
          ],
          [
            129.4055668,
            35.9847281
          ],
          [
            129.4055388,
            35.9847961
          ],
          [
            129.4055301,
            35.9852225
          ],
          [
            129.4043886,
            35.9851689
          ],
          [
            129.4040865,
            35.9851795
          ],
          [
            129.4030942,
            35.9851552
          ],
          [
            129.4026923,
            35.9851516
          ],
          [
            129.4012283,
            35.9851126
          ],
          [
            129.400936,
            35.9851134
          ],
          [
            129.401038,
            35.9855804
          ]
        ]
      },
      "properties": {
        "layer": "lower_risk_route",
        "distance_m": 664.2,
        "travel_time_s": 159.4,
        "high_exposure_m": 0.0,
        "very_high_exposure_m": 0.0,
        "risk_cost": 664.2
      }
    },
    {
      "type": "Feature",
      "geometry": {
        "type": "MultiPolygon",
        "coordinates": [
          [
            [
              [
                129.37133684030647,
                35.9825642071973
              ],
              [
                129.37129236397132,
                35.982464377762604
              ],
              [
                129.37123606282262,
                35.98236857222095
              ],
              [
                129.3711684791032,
                35.982277713215886
              ],
              [
                129.37109026370473,
                35.98219267575097
              ],
              [
                129.37100216989836,
                35.98211427876366
              ],
              [
                129.37090504607997,
                35.982043277239256
              ],
              [
                129.37079982759914,
                35.98198035494087
              ],
              [
                129.37068752775176,
                35.98192611782509
              ],
              [
                129.37056922802194,
                35.98188108820701
              ],
              [
                129.3704460676676,
                35.981845699730926
              ],
              [
                129.37031923275015,
                35.98182029319448
              ],
              [
                129.3701899447136,
                35.98180511326723
              ],
              [
                129.37005944862312,
                35.981800306134645
              ],
              [
                129.36992900117627,
                35.98180591809047
              ],
              [
                129.36979985860233,
                35.98182189509099
              ],
              [
                129.36967326456605,
                35.98184808327533
              ],
              [
                129.36955043819228,
                35.98188423044709
              ],
              [
                129.36943256232698,
                35.98192998850263
              ],
              [
                129.36932077214726,
                35.98198491678305
              ],
              [
                129.36921614423017,
                35.98204848631733
              ],
              [
                129.3691196861855,
                35.982120084915934
              ],
              [
                129.36903232695278,
                35.982199023065704
              ],
              [
                129.36895490785489,
                35.98228454056952
              ],
              [
                129.36888817449568,
                35.98237581386667
              ],
              [
                129.36883276957877,
                35.982471963963285
              ],
              [
                129.36878922671684,
                35.98257206489697
              ],
              [
                129.36875796529168,
                35.982675152653755
              ],
              [
                129.3687392864134,
                35.98278023445145
              ],
              [
                129.36873337001916,
                35.982886298300436
              ],
              [
                129.36874027313814,
                35.982992322749425
              ],
              [
                129.36875992934057,
                35.98309728672256
              ],
              [
                129.36879214937528,
                35.983200179352984
              ],
              [
                129.3688366229906,
                35.983300009718334
              ],
              [
                129.3688929219205,
                35.9833958163842
              ],
              [
                129.36896050400745,
                35.983486676663844
              ],
              [
                129.36903871842247,
                35.98357171550474
              ],
              [
                129.36912681193226,
                35.983650113916546
              ],
              [
                129.36922393615234,
                35.98372111685919
              ],
              [
                129.3693291557176,
                35.98378404051512
              ],
              [
                129.36944145729055,
                35.98383827887555
              ],
              [
                129.3695597593208,
                35.98388330957752
              ],
              [
                129.36968292246195,
                35.983918698935135
              ],
              [
                129.36980976054554,
                35.98394410611682
              ],
              [
                129.36993905200583,
                35.98395928642827
              ],
              [
                129.37006955164617,
                35.98396409366923
              ],
              [
                129.37020000263252,
                35.98395848154179
              ],
              [
                129.37032914859958,
                35.983942504096284
              ],
              [
                129.37045574575225,
                35.98391631521064
              ],
              [
                129.37057857484587,
                35.98388016710824
              ],
              [
                129.3706964529299,
                35.983834407928484
              ],
              [
                129.3708082447421,
                35.98377947837347
              ],
              [
                129.37091287364265,
                35.98371590746322
              ],
              [
                129.37100933198388,
                35.98364430744013
              ],
              [
                129.37109669081497,
                35.983565367872096
              ],
              [
                129.3711741088284,
                35.98347984901073
              ],
              [
                129.371240840462,
                35.983388574468954
              ],
              [
                129.37129624307855,
                35.98329242328845
              ],
              [
                129.37133978315362,
                35.983192321473226
              ],
              [
                129.3713710414127,
                35.98308923307119
              ],
              [
                129.37138971686718,
                35.98298415088931
              ],
              [
                129.37139562971157,
                35.98287808693195
              ],
              [
                129.3713887230531,
                35.98277206265456
              ],
              [
                129.37136906345754,
                35.982667099126424
              ],
              [
                129.37133684030647,
                35.9825642071973
              ]
            ]
          ],
          [
            [
              [
                129.3718153975339,
                35.98481887237531
              ],
              [
                129.37175909405713,
                35.98472306713029
              ],
              [
                129.3716915077088,
                35.9846322084709
              ],
              [
                129.37161328940599,
                35.98454717139734
              ],
              [
                129.3715251924478,
                35.984468774843315
              ],
              [
                129.3714280652604,
                35.98439777378994
              ],
              [
                129.37132284322593,
                35.9843348519958
              ],
              [
                129.37121053967442,
                35.98428061541259
              ],
              [
                129.37109223612566,
                35.98423558635035
              ],
              [
                129.37096907187436,
                35.98420019844794
              ],
              [
                129.37084223301946,
                35.98417479249753
              ],
              [
                129.37071294104285,
                35.984159613163
              ],
              [
                129.3705824410477,
                35.98415480662415
              ],
              [
                129.37045198976912,
                35.98416041916896
              ],
              [
                129.37032284347328,
                35.98417639674806
              ],
              [
                129.37019624586077,
                35.98420258549503
              ],
              [
                129.3700734160909,
                35.98423873320804
              ],
              [
                129.36995553704236,
                35.98428449177823
              ],
              [
                129.36984374392284,
                35.98433942054174
              ],
              [
                129.36973911333772,
                35.9844029905229
              ],
              [
                129.36964265292255,
                35.98447458952789
              ],
              [
                129.3695552916396,
                35.98455352803963
              ],
              [
                129.36947787083156,
                35.98463904585754
              ],
              [
                129.36941113611874,
                35.98473031941782
              ],
              [
                129.36935573021773,
                35.98482646972412
              ],
              [
                129.36931218675082,
                35.98492657081206
              ],
              [
                129.36928092510553,
                35.98502965866608
              ],
              [
                129.3692622463941,
                35.98513474050314
              ],
              [
                129.3692563305522,
                35.98524080433321
              ],
              [
                129.36926323460355,
                35.98534682870521
              ],
              [
                129.36928289210945,
                35.985451792543984
              ],
              [
                129.36931511380627,
                35.985554684983995
              ],
              [
                129.3693595894262,
                35.985654515104706
              ],
              [
                129.36941589068402,
                35.985750321474065
              ],
              [
                129.36948347539976,
                35.985841181408155
              ],
              [
                129.3695616927191,
                35.98592621985783
              ],
              [
                129.36964978938076,
                35.98600461783648
              ],
              [
                129.3697469169699,
                35.986075620308235
              ],
              [
                129.36985214008905,
                35.98613854346001
              ],
              [
                129.3699644453664,
                35.986192781287926
              ],
              [
                129.37008275121588,
                35.98623781143416
              ],
              [
                129.37020591825436,
                35.986273200218115
              ],
              [
                129.37033276027577,
                35.9862986068138
              ],
              [
                129.37046205567657,
                35.98631378653251
              ],
              [
                129.37059255922202,
                35.98631859317972
              ],
              [
                129.3707230140405,
                35.986312980463225
              ],
              [
                129.3708521637298,
                35.986297002439045
              ],
              [
                129.37097876445904,
                35.98627081299067
              ],
              [
                129.371101596949,
                35.986234664346924
              ],
              [
                129.37121947821655,
                35.986188904652394
              ],
              [
                129.37133127296866,
                35.98613397461416
              ],
              [
                129.37143590453726,
                35.98607040325689
              ],
              [
                129.37153236524895,
                35.98599880282729
              ],
              [
                129.37161972613012,
                35.985919862897155
              ],
              [
                129.37169714585355,
                35.98583434372162
              ],
              [
                129.3717638788405,
                35.985743068916605
              ],
              [
                129.37181928244078,
                35.98564691752634
              ],
              [
                129.3718628231205,
                35.98554681555686
              ],
              [
                129.3718940815993,
                35.98544372705754
              ],
              [
                129.3719127568865,
                35.9853386448363
              ],
              [
                129.3719186691782,
                35.985232580897886
              ],
              [
                129.3719117615869,
                35.985126556697566
              ],
              [
                129.37189210068746,
                35.985021593303856
              ],
              [
                129.371859875874,
                35.98491870156524
              ],
              [
                129.3718153975339,
                35.98481887237531
              ]
            ]
          ],
          [
            [
              [
                129.4148224433527,
                35.996269633305644
              ],
              [
                129.41476607979868,
                35.99617384881356
              ],
              [
                129.41469843447388,
                35.9960830149355
              ],
              [
                129.4146201588632,
                35.99599800643297
              ],
              [
                129.41453200681764,
                35.99591964196451
              ],
              [
                129.4144348272938,
                35.99584867620223
              ],
              [
                129.4143295561777,
                35.99578579256483
              ],
              [
                129.41421720727206,
                35.99573159663654
              ],
              [
                129.4140988625333,
                35.99568661033587
              ],
              [
                129.41397566165273,
                35.99565126688992
              ],
              [
                129.413848791082,
                35.99562590666275
              ],
              [
                129.4137194726083,
                35.99561077387796
              ],
              [
                129.41358895159,
                35.99560601426703
              ],
              [
                129.41345848496462,
                35.995611673666126
              ],
              [
                129.4133293291461,
                35.995627697574676
              ],
              [
                129.41320272792674,
                35.99565393168014
              ],
              [
                129.41307990050063,
                35.99569012334388
              ],
              [
                129.41296202972387,
                35.99573592403384
              ],
              [
                129.4128502507246,
                35.99579089268057
              ],
              [
                129.41274563997223,
                35.99585449992432
              ],
              [
                129.41273740258646,
                35.995860618775716
              ],
              [
                129.4126535798626,
                35.99583657100252
              ],
              [
                129.41252670940383,
                35.995811209377074
              ],
              [
                129.41239739086575,
                35.99579607516785
              ],
              [
                129.4122668696072,
                35.9957913141201
              ],
              [
                129.41213640256805,
                35.99579697208378
              ],
              [
                129.4120072461663,
                35.99581299457215
              ],
              [
                129.41188064419975,
                35.995839227286325
              ],
              [
                129.4117578158698,
                35.9958754176011
              ],
              [
                129.41163994404116,
                35.995921216997395
              ],
              [
                129.41152816385213,
                35.99597618441821
              ],
              [
                129.4114235517836,
                35.99603979051564
              ],
              [
                129.41132711529286,
                35.996111422747994
              ],
              [
                129.41123978311185,
                35.9961903912783
              ],
              [
                129.4111623963031,
                35.99627593561681
              ],
              [
                129.41109570015954,
                35.99636723194435
              ],
              [
                129.41104033702652,
                35.99646340104527
              ],
              [
                129.4109968401144,
                35.996563516774174
              ],
              [
                129.41096562836245,
                35.99666661497449
              ],
              [
                129.4109470024026,
                35.99677170276345
              ],
              [
                129.41094114166233,
                35.9968777680937
              ],
              [
                129.41094810263496,
                35.99698378949961
              ],
              [
                129.41096781833352,
                35.99708874593459
              ],
              [
                129.4110000989339,
                35.99719162660431
              ],
              [
                129.41104463360116,
                35.99729144070158
              ],
              [
                129.41110099348123,
                35.99738722694858
              ],
              [
                129.41116863582957,
                35.99747806285517
              ],
              [
                129.41124690923684,
                35.99756307360356
              ],
              [
                129.41133505990143,
                35.997641440473906
              ],
              [
                129.4114322388884,
                35.997712408729875
              ],
              [
                129.4115375103052,
                35.99777529488795
              ],
              [
                129.41164986031478,
                35.99782949330051
              ],
              [
                129.41176820690015,
                35.99787448198929
              ],
              [
                129.41189141028585,
                35.997909827673055
              ],
              [
                129.41201828391567,
                35.997935189940904
              ],
              [
                129.41214760588161,
                35.99795032453104
              ],
              [
                129.41227813069298,
                35.99795508568363
              ],
              [
                129.41240860127337,
                35.99794942754464
              ],
              [
                129.4125377610688,
                35.99793340460761
              ],
              [
                129.41266436615092,
                35.997907171188594
              ],
              [
                129.41278719719875,
                35.99787097993993
              ],
              [
                129.412905071243,
                35.997825179416594
              ],
              [
                129.4130168530603,
                35.997770210718855
              ],
              [
                129.41312146610719,
                35.99770660324373
              ],
              [
                129.41312970365354,
                35.997700484366774
              ],
              [
                129.41321352849664,
                35.99772453178595
              ],
              [
                129.41334040223853,
                35.99774989265539
              ],
              [
                129.41346972414004,
                35.99776502582101
              ],
              [
                129.41360024871113,
                35.997769785536654
              ],
              [
                129.41373071887776,
                35.99776412596214
              ],
              [
                129.41385987808982,
                35.997748101604806
              ],
              [
                129.4139864824247,
                35.99772186679443
              ],
              [
                129.41410931256848,
                35.99768567419673
              ],
              [
                129.4142271855607,
                35.99763987237964
              ],
              [
                129.41433896618807,
                35.99758490245597
              ],
              [
                129.41444357791855,
                35.99752129383449
              ],
              [
                129.41454001327,
                35.997449659120825
              ],
              [
                129.41462734351296,
                35.99737068821699
              ],
              [
                129.4147047276155,
                35.99728514167636
              ],
              [
                129.41477142034196,
                35.99719384337845
              ],
              [
                129.41482677942994,
                35.99709767259367
              ],
              [
                129.41487027177442,
                35.99699755551482
              ],
              [
                129.41490147856052,
                35.996894456336776
              ],
              [
                129.41492009929547,
                35.99678936797022
              ],
              [
                129.41492595470083,
                35.996683302479056
              ],
              [
                129.41491898843697,
                35.99657728133345
              ],
              [
                129.4148992676438,
                35.99647232557246
              ],
              [
                129.41486698229224,
                35.99636944597098
              ],
              [
                129.4148224433527,
                35.996269633305644
              ]
            ]
          ],
          [
            [
              [
                129.4147335880581,
                36.00116102254668
              ],
              [
                129.41465620024195,
                36.00124656907538
              ],
              [
                129.4145895040161,
                36.00133786727089
              ],
              [
                129.41453414172662,
                36.00143403789963
              ],
              [
                129.41449064657584,
                36.00153415480139
              ],
              [
                129.41445943748604,
                36.001637253808376
              ],
              [
                129.41444081506353,
                36.00174234203005
              ],
              [
                129.4144349587018,
                36.001848407414876
              ],
              [
                129.4144419248519,
                36.00195442849668
              ],
              [
                129.41446164647712,
                36.00205938423199
              ],
              [
                129.41449393369624,
                36.002162263833235
              ],
              [
                129.41453847561053,
                36.00226207650347
              ],
              [
                129.41459484329621,
                36.00235786097865
              ],
              [
                129.41466249393352,
                36.00244869478568
              ],
              [
                129.41474077603334,
                36.00253370312697
              ],
              [
                129.41482893571032,
                36.00261206730586
              ],
              [
                129.41492612394273,
                36.002683032611955
              ],
              [
                129.41503140474893,
                36.00274591559013
              ],
              [
                129.41514376420147,
                36.00280011062336
              ],
              [
                129.4152621201924,
                36.00284509576598
              ],
              [
                129.4153853328557,
                36.002880437770855
              ],
              [
                129.41551221554573,
                36.002905796262496
              ],
              [
                129.41564154626724,
                36.00292092701556
              ],
              [
                129.41577207944525,
                36.0029256843071
              ],
              [
                129.41590255792272,
                36.00292002232031
              ],
              [
                129.41603172506962,
                36.00290399558575
              ],
              [
                129.4161583368868,
                36.00287775845609
              ],
              [
                129.41628117398838,
                36.0028415636194
              ],
              [
                129.41639905334682,
                36.00279575966516
              ],
              [
                129.41651083968748,
                36.00274078772678
              ],
              [
                129.4166154564234,
                36.002677177232435
              ],
              [
                129.41671189602408,
                36.002605540805824
              ],
              [
                129.41679922971937,
                36.00252656836542
              ],
              [
                129.41687661644386,
                36.002441020479424
              ],
              [
                129.4169433109368,
                36.002349721040275
              ],
              [
                129.41699867091876,
                36.0022535493294
              ],
              [
                129.41704216327605,
                36.00215343154855
              ],
              [
                129.41707336919373,
                36.00205033189931
              ],
              [
                129.41709198818745,
                36.00194524329693
              ],
              [
                129.4170978409955,
                36.001839177807575
              ],
              [
                129.41709087130326,
                36.00173315690138
              ],
              [
                129.4170768673374,
                36.00165864292433
              ],
              [
                129.4171539204388,
                36.001588965478625
              ],
              [
                129.41723130587192,
                36.001503417359025
              ],
              [
                129.41729799917528,
                36.00141211771634
              ],
              [
                129.41735335808096,
                36.00131594583394
              ],
              [
                129.41739684948558,
                36.00121582791522
              ],
              [
                129.4174280545835,
                36.0011127281631
              ],
              [
                129.41744667289808,
                36.00100763949383
              ],
              [
                129.41745252517424,
                36.00090157397418
              ],
              [
                129.41744555510255,
                36.00079555307464
              ],
              [
                129.41742582985955,
                36.00069059783186
              ],
              [
                129.41739353945903,
                36.00058771901575
              ],
              [
                129.41734899492005,
                36.00048790739539
              ],
              [
                129.41729262526997,
                36.00039212419779
              ],
              [
                129.4172249734113,
                36.00030129185127
              ],
              [
                129.41714669089183,
                36.0002162851026
              ],
              [
                129.41705853162907,
                36.00013792259339
              ],
              [
                129.41696134464914,
                36.000066958976895
              ],
              [
                129.41685606590988,
                36.00000407765113
              ],
              [
                129.41674370928737,
                35.999949884178086
              ],
              [
                129.41662535681235,
                35.99990490045262
              ],
              [
                129.41650214825063,
                35.99986955967704
              ],
              [
                129.41637527012782,
                35.99984420218966
              ],
              [
                129.41624594430388,
                35.9998290721877
              ],
              [
                129.41611541620787,
                35.999824315375875
              ],
              [
                129.41598494284554,
                35.99982997756337
              ],
              [
                129.41585578069564,
                35.99984600422277
              ],
              [
                129.41572917361145,
                35.999872241015034
              ],
              [
                129.41560634084354,
                35.999908435275664
              ],
              [
                129.4154884652995,
                35.99995423844761
              ],
              [
                129.4153766821533,
                36.0000092094375
              ],
              [
                129.41527206791432,
                36.000072818863046
              ],
              [
                129.4151756300608,
                36.00014445415056
              ],
              [
                129.41508829733775,
                36.0002234254336
              ],
              [
                129.415010910813,
                36.000308972195946
              ],
              [
                129.41494421577673,
                36.00040027059507
              ],
              [
                129.41488885456363,
                36.00049644139538
              ],
              [
                129.41484536036558,
                36.00059655843508
              ],
              [
                129.41481415209574,
                36.000699657545006
              ],
              [
                129.41479553035248,
                36.00080474583361
              ],
              [
                129.41478967452275,
                36.00091081124874
              ],
              [
                129.41479664105253,
                36.001016832323934
              ],
              [
                129.41481064275627,
                36.00109134659002
              ],
              [
                129.4147335880581,
                36.00116102254668
              ]
            ]
          ],
          [
            [
              [
                129.41311685265157,
                36.00922015029423
              ],
              [
                129.41306048177944,
                36.00912436525433
              ],
              [
                129.4129928271915,
                36.009033530670145
              ],
              [
                129.41291454046186,
                36.008948521309975
              ],
              [
                129.4128263755486,
                36.00887015584058
              ],
              [
                129.41272918153223,
                36.008799188943755
              ],
              [
                129.4126238944384,
                36.00873630404905
              ],
              [
                129.41251152822366,
                36.00868210675284
              ],
              [
                129.4123931650111,
                36.00863711898681
              ],
              [
                129.41226994466996,
                36.00860177399213
              ],
              [
                129.41214305383923,
                36.008576412147775
              ],
              [
                129.41201371450126,
                36.00856127769291
              ],
              [
                129.41188317221525,
                36.008556516375116
              ],
              [
                129.4117526841236,
                36.00856217404698
              ],
              [
                129.41162350684687,
                36.00857819622455
              ],
              [
                129.411496884384,
                36.00860442861197
              ],
              [
                129.4113740361336,
                36.00864061858715
              ],
              [
                129.4112561451524,
                36.00868641763431
              ],
              [
                129.411144346763,
                36.00874138469981
              ],
              [
                129.41103971762152,
                36.00880499043915
              ],
              [
                129.4109432653498,
                36.008876622314155
              ],
              [
                129.41085591883166,
                36.00895559049123
              ],
              [
                129.4107785192677,
                36.009041134484114
              ],
              [
                129.41071181207377,
                36.00913243047694
              ],
              [
                129.41065643970154,
                36.009228599257284
              ],
              [
                129.4106129354505,
                36.00932871468283
              ],
              [
                129.41058171833058,
                36.00943181259996
              ],
              [
                129.41056308902535,
                36.00953690012864
              ],
              [
                129.41055722699463,
                36.009642965223996
              ],
              [
                129.41056418874422,
                36.009748986422714
              ],
              [
                129.4105839072796,
                36.00985394268013
              ],
              [
                129.41061619274947,
                36.009956823203694
              ],
              [
                129.41066073427194,
                36.01005663718754
              ],
              [
                129.410717102927,
                36.010152423354995
              ],
              [
                129.4107847558856,
                36.01024325921668
              ],
              [
                129.41086304163622,
                36.010328269955195
              ],
              [
                129.41095120625846,
                36.01040663685079
              ],
              [
                129.41104840068292,
                36.0104776051669
              ],
              [
                129.4111536888683,
                36.01054049141939
              ],
              [
                129.41126605681612,
                36.01059468995973
              ],
              [
                129.41138442233665,
                36.01063967880846
              ],
              [
                129.41150764547203,
                36.010675024682726
              ],
              [
                129.4116345394758,
                36.0107003871698
              ],
              [
                129.41176388224372,
                36.01071552200583
              ],
              [
                129.41189442808476,
                36.01072028342855
              ],
              [
                129.41202491971995,
                36.01071462558135
              ],
              [
                129.41215410039248,
                36.010698602954925
              ],
              [
                129.41228072597298,
                36.0106723698624
              ],
              [
                129.41240357694292,
                36.01063617895292
              ],
              [
                129.41252147014123,
                36.010590378778204
              ],
              [
                129.41263327015997,
                36.010535410435224
              ],
              [
                129.41273790028043,
                36.01047180331754
              ],
              [
                129.41283435284322,
                36.01040017001633
              ],
              [
                129.41292169895326,
                36.01032120041996
              ],
              [
                129.41299909742565,
                36.01023565506928
              ],
              [
                129.4130658028865,
                36.01014435783233
              ],
              [
                129.41312117295072,
                36.01004818796929
              ],
              [
                129.41316467440754,
                36.009948071664155
              ],
              [
                129.41319588835444,
                36.00984497310431
              ],
              [
                129.41321451422968,
                36.00973988519448
              ],
              [
                129.41322037270535,
                36.009633819994185
              ],
              [
                129.4132134074123,
                36.009527798970815
              ],
              [
                129.41319368548108,
                36.009422843162234
              ],
              [
                129.41316139689363,
                36.009319963343806
              ],
              [
                129.41311685265157,
                36.00922015029423
              ]
            ]
          ],
          [
            [
              [
                129.36815963688426,
                36.011972709116435
              ],
              [
                129.36810331821837,
                36.01187690267637
              ],
              [
                129.3680357125964,
                36.011786042479656
              ],
              [
                129.36795747112086,
                36.011701003541255
              ],
              [
                129.3678693473142,
                36.01162260481282
              ],
              [
                129.36777218986117,
                36.011551601296446
              ],
              [
                129.36766693443525,
                36.01148867677434
              ],
              [
                129.3675545946882,
                36.01143443722448
              ],
              [
                129.36743625248826,
                36.011389404985444
              ],
              [
                129.36731304750236,
                36.011354013726695
              ],
              [
                129.36718616622167,
                36.01132860427269
              ],
              [
                129.36705683053668,
                36.01131342132104
              ],
              [
                129.36692628597132,
                36.01130861108636
              ],
              [
                129.36679578968995,
                36.01131421989224
              ],
              [
                129.36666659839204,
                36.01133019372529
              ],
              [
                129.3665399562115,
                36.01135637875519
              ],
              [
                129.36641708273683,
                36.01139252281589
              ],
              [
                129.36629916126753,
                36.01143827783372
              ],
              [
                129.36618732741982,
                36.01149320317908
              ],
              [
                129.3660826581912,
                36.0115567699092
              ],
              [
                129.36598616158943,
                36.011628365861576
              ],
              [
                129.36589876692517,
                36.011707301548576
              ],
              [
                129.36582131586266,
                36.01179281679683
              ],
              [
                129.3657545543136,
                36.0118840880673
              ],
              [
                129.36569912525306,
                36.01198023638574
              ],
              [
                129.36565556252634,
                36.01208033580687
              ],
              [
                129.3656242857065,
                36.012183422331276
              ],
              [
                129.3656055960521,
                36.01228850318869
              ],
              [
                129.36559967360404,
                36.01239456639855
              ],
              [
                129.36560657544996,
                36.012500590515714
              ],
              [
                129.36562623517236,
                36.01260555446753
              ],
              [
                129.36565846348626,
                36.012708447387325
              ],
              [
                129.36570295006035,
                36.01280827834997
              ],
              [
                129.36575926650383,
                36.012904085915295
              ],
              [
                129.3658268704906,
                36.01299494738785
              ],
              [
                129.3659051109808,
                36.01307998770364
              ],
              [
                129.36599323448996,
                36.01315838785808
              ],
              [
                129.3660903923448,
                36.01322939279431
              ],
              [
                129.3661956488563,
                36.013292318675504
              ],
              [
                129.36630799033105,
                36.01334655947149
              ],
              [
                129.3664263348344,
                36.013391592795784
              ],
              [
                129.36654954261087,
                36.01342698493724
              ],
              [
                129.36667642706203,
                36.01345239503746
              ],
              [
                129.36680576617567,
                36.013467578374005
              ],
              [
                129.36693631429603,
                36.013472388717474
              ],
              [
                129.36706681412207,
                36.01346677974009
              ],
              [
                129.36719600881818,
                36.01345080546182
              ],
              [
                129.36732265411985,
                36.01342461973012
              ],
              [
                129.36744553031858,
                36.013388474737994
              ],
              [
                129.36756345401028,
                36.01334271859491
              ],
              [
                129.36767528949326,
                36.013287791973724
              ],
              [
                129.36777995970718,
                36.01322422386621
              ],
              [
                129.36787645660644,
                36.013152626487816
              ],
              [
                129.3679638508689,
                36.01307368938098
              ],
              [
                129.36804130084582,
                36.01298817277363
              ],
              [
                129.36810806066723,
                36.01289690025703
              ],
              [
                129.36816348742437,
                36.01280075085333
              ],
              [
                129.36820704736053,
                36.01270065054948
              ],
              [
                129.3682383210098,
                36.01259756337887
              ],
              [
                129.3682570072356,
                36.012492482136565
              ],
              [
                129.3682629261287,
                36.012386418817925
              ],
              [
                129.36825602073807,
                36.01228039487226
              ],
              [
                129.3682363576175,
                36.01217543136566
              ],
              [
                129.36820412618243,
                36.01207253914765
              ],
              [
                129.36815963688426,
                36.011972709116435
              ]
            ]
          ],
          [
            [
              [
                129.36860748737888,
                36.015392204472704
              ],
              [
                129.3685511657036,
                36.01529639831494
              ],
              [
                129.36848355661493,
                36.01520553844251
              ],
              [
                129.3684053112489,
                36.0151204998673
              ],
              [
                129.3683171831653,
                36.01504210153741
              ],
              [
                129.36822002109005,
                36.01497109845112
              ],
              [
                129.3681147607413,
                36.01490817438649
              ],
              [
                129.36800241581804,
                36.0148539353171
              ],
              [
                129.36788406823848,
                36.014808903576885
              ],
              [
                129.36776085772127,
                36.01477351283051
              ],
              [
                129.3676339708109,
                36.01474810389748
              ],
              [
                129.36750462945201,
                36.014732921470404
              ],
              [
                129.36737407922323,
                36.01472811175884
              ],
              [
                129.36724357734343,
                36.01473372108134
              ],
              [
                129.36711438056597,
                36.014749695419574
              ],
              [
                129.36698773307756,
                36.0147758809383
              ],
              [
                129.36686485451776,
                36.014812025466775
              ],
              [
                129.36674692823505,
                36.01485778092686
              ],
              [
                129.366635089892,
                36.01491270668465
              ],
              [
                129.36653041652943,
                36.01497627379347
              ],
              [
                129.36643391619484,
                36.0150478700871
              ],
              [
                129.36634651823496,
                36.01512680607468
              ],
              [
                129.3662690643457,
                36.01521232157991
              ],
              [
                129.36620230046594,
                36.01530359306132
              ],
              [
                129.36614686959325,
                36.01539974154258
              ],
              [
                129.36610330559046,
                36.01549984107688
              ],
              [
                129.3660720280428,
                36.01560292766374
              ],
              [
                129.36605333821586,
                36.01570800853223
              ],
              [
                129.3660474161523,
                36.01581407170172
              ],
              [
                129.36605431893605,
                36.015920095727466
              ],
              [
                129.36607398014047,
                36.01602505953766
              ],
              [
                129.36610621046646,
                36.016127952267034
              ],
              [
                129.36615069956326,
                36.01622778299225
              ],
              [
                129.36620701901583,
                36.01632359027544
              ],
              [
                129.366274626469,
                36.01641445142388
              ],
              [
                129.36635287084962,
                36.016499491376685
              ],
              [
                129.36644099863577,
                36.016577891132755
              ],
              [
                129.3665381611129,
                36.016648895639065
              ],
              [
                129.3666434225475,
                36.016711821062955
              ],
              [
                129.3667557691988,
                36.01676606137862
              ],
              [
                129.36687411908218,
                36.0168110942042
              ],
              [
                129.36699733239047,
                36.016846485833376
              ],
              [
                129.36712422247192,
                36.01687189541267
              ],
              [
                129.36725356726,
                36.016887078224634
              ],
              [
                129.36738412104438,
                36.016891888044974
              ],
              [
                129.3675146264695,
                36.01688627855089
              ],
              [
                129.3676438266457,
                36.01687030376739
              ],
              [
                129.36777047725573,
                36.01684411754673
              ],
              [
                129.36789335854004,
                36.01680797208668
              ],
              [
                129.36801128704545,
                36.01676221550119
              ],
              [
                129.368123127024,
                36.01670728846737
              ],
              [
                129.36822780137197,
                36.01664371998099
              ],
              [
                129.36832430200403,
                36.01657212226114
              ],
              [
                129.36841169956202,
                36.01649318485355
              ],
              [
                129.36848915236544,
                36.016407667989064
              ],
              [
                129.36855591451715,
                36.01631639526139
              ],
              [
                129.368611343086,
                36.01622024569477
              ],
              [
                129.36865490429776,
                36.01612014527765
              ],
              [
                129.36868617867432,
                36.01601705804455
              ],
              [
                129.368704865072,
                36.01591197679114
              ],
              [
                129.36871078357998,
                36.01580591351289
              ],
              [
                129.368703877251,
                36.015699889658706
              ],
              [
                129.3686842126478,
                36.01559492629381
              ],
              [
                129.3686519792002,
                36.01549203426636
              ],
              [
                129.36860748737888,
                36.015392204472704
              ]
            ]
          ],
          [
            [
              [
                129.44591033448694,
                35.98711201661086
              ],
              [
                129.44585394013436,
                35.98701624679477
              ],
              [
                129.44578626728224,
                35.98692543050113
              ],
              [
                129.4457079676805,
                35.98684044232211
              ],
              [
                129.4456197954112,
                35.9867621007205
              ],
              [
                129.4455225996255,
                35.98669116014819
              ],
              [
                129.44541731636608,
                35.9866283037813
              ],
              [
                129.44530495955246,
                35.986574136941464
              ],
              [
                129.44518661121722,
                35.98652918126707
              ],
              [
                129.44506341108632,
                35.986493869690314
              ],
              [
                129.44493654560407,
                35.986468542268334
              ],
              [
                129.44480723650875,
                35.98645344290885
              ],
              [
                129.44467672906833,
                35.98644871702151
              ],
              [
                129.4445462800896,
                35.98645441011772
              ],
              [
                129.4444171458167,
                35.98647046737243
              ],
              [
                129.4442905698343,
                35.98649673415195
              ],
              [
                129.4441677710936,
                35.98653295750306
              ],
              [
                129.44404993217447,
                35.986578788588545
              ],
              [
                129.4439381878983,
                35.98663378604623
              ],
              [
                129.4438336144002,
                35.98669742023895
              ],
              [
                129.4437372187661,
                35.98676907835448
              ],
              [
                129.44364992933447,
                35.9868480703065
              ],
              [
                129.4435725867563,
                35.98693363537978
              ],
              [
                129.44350593589854,
                35.98702494955536
              ],
              [
                129.44345061867048,
                35.987121133445754
              ],
              [
                129.4434071678404,
                35.987221260763036
              ],
              [
                129.44337600190389,
                35.987324367239026
              ],
              [
                129.44335742105153,
                35.98742945991122
              ],
              [
                129.44335714944992,
                35.98743441247347
              ],
              [
                129.44331039575775,
                35.987383662675704
              ],
              [
                129.4432222252297,
                35.98730531930665
              ],
              [
                129.44312503089822,
                35.98723437678796
              ],
              [
                129.4430197487918,
                35.98717151831442
              ],
              [
                129.44290739281894,
                35.98711734922799
              ],
              [
                129.4427890450041,
                35.987072391188704
              ],
              [
                129.44266584506823,
                35.987037077151484
              ],
              [
                129.4425389794538,
                35.987011747197215
              ],
              [
                129.4424096699003,
                35.986996645257975
              ],
              [
                129.44227916168012,
                35.986991916768254
              ],
              [
                129.44214871160767,
                35.98699760726452
              ],
              [
                129.44201957593742,
                35.98701366194673
              ],
              [
                129.44189299826772,
                35.98703992620602
              ],
              [
                129.44177019756583,
                35.98707614711343
              ],
              [
                129.44165235643064,
                35.98712197585522
              ],
              [
                129.4415406097048,
                35.987176971091856
              ],
              [
                129.441436033547,
                35.98724060320751
              ],
              [
                129.4413396350688,
                35.98731225940998
              ],
              [
                129.44125234263612,
                35.98739124963139
              ],
              [
                129.4411749969287,
                35.98747681317314
              ],
              [
                129.4411083428438,
                35.987568126031064
              ],
              [
                129.44105302232163,
                35.98766430883031
              ],
              [
                129.4410095681623,
                35.9877644352935
              ],
              [
                129.44097839889335,
                35.987867541160696
              ],
              [
                129.44095981473757,
                35.98797263347522
              ],
              [
                129.4409546394656,
                35.98806695001743
              ],
              [
                129.44094088665747,
                35.98806865966837
              ],
              [
                129.44081430693666,
                35.98809492279928
              ],
              [
                129.4406915041002,
                35.98813114261106
              ],
              [
                129.44057366076748,
                35.98817697030061
              ],
              [
                129.44046191180234,
                35.988231964538485
              ],
              [
                129.44035733338507,
                35.98829559571849
              ],
              [
                129.4402609326489,
                35.98836725105742
              ],
              [
                129.44017363798156,
                35.98844624049572
              ],
              [
                129.4400962900843,
                35.988531803342326
              ],
              [
                129.44002963387544,
                35.988623115599786
              ],
              [
                129.43997431131567,
                35.98871929789901
              ],
              [
                129.4399308552247,
                35.98881942396747
              ],
              [
                129.4398996841487,
                35.98892252954898
              ],
              [
                129.43988109832787,
                35.98902762168967
              ],
              [
                129.43987527680315,
                35.98913368830022
              ],
              [
                129.43988227569014,
                35.989239707902655
              ],
              [
                129.4399020276367,
                35.98934465946769
              ],
              [
                129.4399343424696,
                35.98944753224792
              ],
              [
                129.4399789090242,
                35.98954733551203
              ],
              [
                129.4400352981393,
                35.989643108086554
              ],
              [
                129.44010296678871,
                35.989733927612996
              ],
              [
                129.44018126330974,
                35.98981891943131
              ],
              [
                129.44026943367814,
                35.98989726500394
              ],
              [
                129.4403666287692,
                35.989968209799684
              ],
              [
                129.4404719125351,
                35.99003107056096
              ],
              [
                129.44058427101984,
                35.990085241884735
              ],
              [
                129.4407026221249,
                35.99013020205367
              ],
              [
                129.44082582603107,
                35.9901655180612
              ],
              [
                129.44095269617728,
                35.99019084978225
              ],
              [
                129.4410820106889,
                35.99020595324929
              ],
              [
                129.44121252414718,
                35.99021068300219
              ],
              [
                129.441342979585,
                35.99020499348941
              ],
              [
                129.4414721205942,
                35.99018893950658
              ],
              [
                129.44159870342745,
                35.99016267566887
              ],
              [
                129.44172150897802,
                35.99012645492156
              ],
              [
                129.44183935452233,
                35.990080626103705
              ],
              [
                129.44195110511143,
                35.99002563058814
              ],
              [
                129.4420556845027,
                35.98996199803014
              ],
              [
                129.4421520855254,
                35.989890341265856
              ],
              [
                129.4422393797809,
                35.989811350409624
              ],
              [
                129.44231672658367,
                35.98972578620701
              ],
              [
                129.44238338105754,
                35.98963447270757
              ],
              [
                129.44243870130845,
                35.989538289328124
              ],
              [
                129.4424821546054,
                35.989438162382704
              ],
              [
                129.4425133225096,
                35.989335056161195
              ],
              [
                129.44253190490278,
                35.989229963642074
              ],
              [
                129.44253707835793,
                35.989135647062746
              ],
              [
                129.44255083131458,
                35.98913393722807
              ],
              [
                129.4426774120965,
                35.9891076722619
              ],
              [
                129.44280021551228,
                35.98907145041896
              ],
              [
                129.4429180588588,
                35.98902562054885
              ],
              [
                129.44302980720838,
                35.98897062403453
              ],
              [
                129.44313438433994,
                35.98890699054088
              ],
              [
                129.44323078310453,
                35.98883533291312
              ],
              [
                129.44331807512523,
                35.988756341273834
              ],
              [
                129.4433954197381,
                35.98867077637616
              ],
              [
                129.44346207208795,
                35.98857946227635
              ],
              [
                129.44351739030125,
                35.98848327839698
              ],
              [
                129.44356084166665,
                35.98838315105694
              ],
              [
                129.44357478428083,
                35.988337024871015
              ],
              [
                129.44358971282108,
                35.98835705950178
              ],
              [
                129.44366801168164,
                35.988442049047265
              ],
              [
                129.4437561839237,
                35.98852039206186
              ],
              [
                129.4438533804045,
                35.988591334038944
              ],
              [
                129.44395866506287,
                35.988654191748104
              ],
              [
                129.44407102393419,
                35.9887083598157
              ],
              [
                129.44418937491614,
                35.98875331655579
              ],
              [
                129.44431257819082,
                35.98878862899478
              ],
              [
                129.4444394472031,
                35.98881395704199
              ],
              [
                129.4445687600894,
                35.988829056765255
              ],
              [
                129.44469927144655,
                35.98883378274054
              ],
              [
                129.44482972432766,
                35.98882808945266
              ],
              [
                129.44495886234927,
                35.98881203173365
              ],
              [
                129.44508544179274,
                35.988785764234606
              ],
              [
                129.44520824358406,
                35.988749539936094
              ],
              [
                129.4453260850358,
                35.98870370771138
              ],
              [
                129.44543783123848,
                35.98864870896612
              ],
              [
                129.44554240599172,
                35.98858507338666
              ],
              [
                129.44563880216947,
                35.988513413838305
              ],
              [
                129.44572609141971,
                35.98843442046214
              ],
              [
                129.4458034331052,
                35.98834885402803
              ],
              [
                129.44587008239898,
                35.988257538607016
              ],
              [
                129.4459253974569,
                35.9881613536344
              ],
              [
                129.44596884559803,
                35.988061225439615
              ],
              [
                129.44600000843317,
                35.98795811832452
              ],
              [
                129.44601858589292,
                35.9878530252762
              ],
              [
                129.44602439911552,
                35.98774695840362
              ],
              [
                129.44601971710864,
                35.98767611694015
              ],
              [
                129.446021397411,
                35.987645458448895
              ],
              [
                129.44601439047753,
                35.987539439233416
              ],
              [
                129.4460134994883,
                35.98753470685605
              ],
              [
                129.4460139953999,
                35.987525658545145
              ],
              [
                129.44600698848862,
                35.98741963932696
              ],
              [
                129.445987228974,
                35.98731468878706
              ],
              [
                129.44595490719968,
                35.98721181764999
              ],
              [
                129.44591033448694,
                35.98711201661086
              ]
            ]
          ],
          [
            [
              [
                129.43896030485774,
                35.98924378738532
              ],
              [
                129.43890391732592,
                35.989148014288126
              ],
              [
                129.43883625055116,
                35.98905719406341
              ],
              [
                129.43875795622486,
                35.98897220134122
              ],
              [
                129.43866978837823,
                35.98889385462807
              ],
              [
                129.43857259611997,
                35.98882290842514
              ],
              [
                129.4384673154587,
                35.98876004596273
              ],
              [
                129.43835496028896,
                35.988705872621146
              ],
              [
                129.43823661262758,
                35.98866091010146
              ],
              [
                129.4381134121939,
                35.98862559140171
              ],
              [
                129.43798654543525,
                35.98860025664767
              ],
              [
                129.43785723410218,
                35.98858514981766
              ],
              [
                129.4377267234842,
                35.98858041639325
              ],
              [
                129.43759627041874,
                35.98858610195843
              ],
              [
                129.43746713118918,
                35.98860215176065
              ],
              [
                129.4373405494281,
                35.988628411238025
              ],
              [
                129.43721774414212,
                35.988664627507625
              ],
              [
                129.43709989797432,
                35.988710451800415
              ],
              [
                129.4369881458158,
                35.98876544281968
              ],
              [
                129.43688356387753,
                35.98882907099021
              ],
              [
                129.4367871593268,
                35.9889007235578
              ],
              [
                129.43669986058788,
                35.98897971048956
              ],
              [
                129.43662250840134,
                35.98906527111859
              ],
              [
                129.4365558477268,
                35.98915658146878
              ],
              [
                129.4365005205679,
                35.989252762189416
              ],
              [
                129.4364570597887,
                35.98935288702317
              ],
              [
                129.43642588398046,
                35.98945599172578
              ],
              [
                129.43640729342897,
                35.98956108335181
              ],
              [
                129.43640146722072,
                35.9896671498169
              ],
              [
                129.43640846151644,
                35.98977316964451
              ],
              [
                129.43642820900817,
                35.98987812180317
              ],
              [
                129.43646051956568,
                35.98998099553976
              ],
              [
                129.4365050820654,
                35.99008080011375
              ],
              [
                129.43656146738522,
                35.990176574339095
              ],
              [
                129.4366291325355,
                35.99026739584138
              ],
              [
                129.43670742588733,
                35.99035238994152
              ],
              [
                129.43679559344687,
                35.990430738080015
              ],
              [
                129.43689278611654,
                35.990501685700934
              ],
              [
                129.43699806787185,
                35.99056454951949
              ],
              [
                129.43711042477617,
                35.9906187241032
              ],
              [
                129.43722877474613,
                35.99066368770334
              ],
              [
                129.4373519779736,
                35.99069900728029
              ],
              [
                129.43747884790386,
                35.99072434267458
              ],
              [
                129.43760816266453,
                35.99073944988333
              ],
              [
                129.43773867683439,
                35.99074418341036
              ],
              [
                129.43786913343945,
                35.990738497667756
              ],
              [
                129.43799827606034,
                35.99072244741489
              ],
              [
                129.4381248609342,
                35.990696187230945
              ],
              [
                129.4382476689347,
                35.990659970026044
              ],
              [
                129.4383655173145,
                35.990614144605104
              ],
              [
                129.43847727109747,
                35.99055915230827
              ],
              [
                129.4385818540102,
                35.990495522759794
              ],
              [
                129.43867825884806,
                35.990423868766854
              ],
              [
                129.43876555717557,
                35.9903448804171
              ],
              [
                129.43884290826807,
                35.99025931843195
              ],
              [
                129.43890956720801,
                35.99016800683961
              ],
              [
                129.43896489205835,
                35.99007182503852
              ],
              [
                129.4390083500438,
                35.98997169932755
              ],
              [
                129.4390395226804,
                35.98986859398468
              ],
              [
                129.43905810980428,
                35.98976350197994
              ],
              [
                129.43906393246067,
                35.98965743541222
              ],
              [
                129.43905693462534,
                35.98955141576203
              ],
              [
                129.43903718374224,
                35.98944646405401
              ],
              [
                129.439004870072,
                35.98934359102401
              ],
              [
                129.43896030485774,
                35.98924378738532
              ]
            ]
          ]
        ]
      },
      "properties": {
        "layer": "risk_zone",
        "risk_level": "HIGH"
      }
    }
  ]
}
